STARLINK-32198          
1 60321U 24133W   26068.90954413  .00000298  00000+0  22201-4 0  9991
2 60321  53.1597 296.0649 0001246  76.3890 283.7249 15.30191124 91761
XCUBE-1                 
1 62400U 24247Z   26068.48297321  .00009773  00000+0  36224-3 0  9994
2 62400  44.9938 117.7807 0005235 331.1499  28.9094 15.27910558 67702
